start=new Date('2022-07-14T00:00:00.000Z').valueOf();
sats=[{"INCLINATION":"53.0552","MEAN_MOTION_DDOT":"0.0000000000000","MEAN_MOTION":"15.06401381","RA_OF_ASC_NODE":"147.6289","RCS_SIZE":"LARGE","CENTER_NAME":"EARTH","PERIAPSIS":"546.254","ECCENTRICITY":"0.00013790","COUNTRY_CODE":"US","MEAN_ANOMALY":"288.2388","OBJECT_TYPE":"PAYLOAD","SEMIMAJOR_AXIS":"6925.344","EPOCH":"2022-07-13T00:46:47.624160","BSTAR":"0.00000269010000","OBJECT_ID":"2021-021Y","REV_AT_EPOCH":"7504","EPHEMERIS_TYPE":"0","MEAN_ELEMENT_THEORY":"SGP4","TLE_LINE2":"2 47882  53.0552 147.6289 0001379  71.8751 288.2388 15.06401381 75041","NORAD_CAT_ID":"47882","FILE":"3512925","MEAN_MOTION_DOT":"-0.00000241","REF_FRAME":"TEME","APOAPSIS":"548.164","CLASSIFICATION_TYPE":"U","DECAY_DATE":null,"TLE_LINE1":"1 47882U 21021Y   22194.03249565 -.00000241  00000-0  26901-5 0  9998","PERIOD":"95.592","GP_ID":"208035254","LAUNCH_DATE":"2021-03-14","ELEMENT_SET_NO":"999","OBJECT_NAME":"STARLINK-2340","SITE":"AFETR","ARG_OF_PERICENTER":"71.8751","TIME_SYSTEM":"UTC"},{"RA_OF_ASC_NODE":"149.7672","MEAN_MOTION_DDOT":"0.0000000000000","MEAN_MOTION":"15.06396190","INCLINATION":"53.0537","RCS_SIZE":"LARGE","CENTER_NAME":"EARTH","MEAN_ANOMALY":"294.6948","PERIAPSIS":"546.020","COUNTRY_CODE":"US","ECCENTRICITY":"0.00017400","FILE":"3513188","MEAN_MOTION_DOT":"0.00001482","NORAD_CAT_ID":"47883","REV_AT_EPOCH":"7507","EPHEMERIS_TYPE":"0","OBJECT_ID":"2021-021Z","MEAN_ELEMENT_THEORY":"SGP4","TLE_LINE2":"2 47883  53.0537 149.7672 0001740  65.4222 294.6948 15.06396190 75075","SEMIMAJOR_AXIS":"6925.360","EPOCH":"2022-07-13T16:01:43.291488","BSTAR":"0.00011836000000","OBJECT_TYPE":"PAYLOAD","REF_FRAME":"TEME","APOAPSIS":"548.430","GP_ID":"208065599","DECAY_DATE":null,"TLE_LINE1":"1 47883U 21021Z   22194.66786217  .00001482  00000-0  11836-3 0  9994","PERIOD":"95.592","CLASSIFICATION_TYPE":"U","ARG_OF_PERICENTER":"65.4222","TIME_SYSTEM":"UTC","SITE":"AFETR","ELEMENT_SET_NO":"999","LAUNCH_DATE":"2021-03-14","OBJECT_NAME":"STARLINK-2342"},{"ELEMENT_SET_NO":"999","LAUNCH_DATE":"2021-03-14","OBJECT_NAME":"STARLINK-2343","SITE":"AFETR","ARG_OF_PERICENTER":"63.2937","TIME_SYSTEM":"UTC","CLASSIFICATION_TYPE":"U","PERIOD":"95.592","TLE_LINE1":"1 47884U 21021AA  22194.31908192  .00000266  00000-0  36740-4 0  9996","DECAY_DATE":null,"GP_ID":"208034754","APOAPSIS":"548.479","REF_FRAME":"TEME","OBJECT_TYPE":"PAYLOAD","EPOCH":"2022-07-13T07:39:28.677888","SEMIMAJOR_AXIS":"6925.348","BSTAR":"0.00003674000000","REV_AT_EPOCH":"7477","OBJECT_ID":"2021-021AA","EPHEMERIS_TYPE":"0","MEAN_ELEMENT_THEORY":"SGP4","TLE_LINE2":"2 47884  53.0545 156.3426 0001829  63.2937 296.8239 15.06400336 74774","FILE":"3512925","MEAN_MOTION_DOT":"0.00000266","NORAD_CAT_ID":"47884","PERIAPSIS":"545.946","ECCENTRICITY":"0.00018290","COUNTRY_CODE":"US","MEAN_ANOMALY":"296.8239","RCS_SIZE":"LARGE","CENTER_NAME":"EARTH","INCLINATION":"53.0545","MEAN_MOTION_DDOT":"0.0000000000000","MEAN_MOTION":"15.06400336","RA_OF_ASC_NODE":"156.3426"},{"MEAN_ANOMALY":"277.6701","ECCENTRICITY":"0.00016860","COUNTRY_CODE":"US","PERIAPSIS":"546.027","MEAN_ELEMENT_THEORY":"SGP4","TLE_LINE2":"2 47885  53.0538 159.8730 0001686  82.4479 277.6701 15.06406111 74912","REV_AT_EPOCH":"7491","EPHEMERIS_TYPE":"0","OBJECT_ID":"2021-021AB","NORAD_CAT_ID":"47885","FILE":"3513188","MEAN_MOTION_DOT":"-0.00000045","OBJECT_TYPE":"PAYLOAD","BSTAR":"0.00001587400000","EPOCH":"2022-07-13T15:28:33.209184","SEMIMAJOR_AXIS":"6925.330","RA_OF_ASC_NODE":"159.8730","INCLINATION":"53.0538","MEAN_MOTION":"15.06406111","MEAN_MOTION_DDOT":"0.0000000000000","CENTER_NAME":"EARTH","RCS_SIZE":"LARGE","GP_ID":"208066102","CLASSIFICATION_TYPE":"U","DECAY_DATE":null,"TLE_LINE1":"1 47885U 21021AB  22194.64482881 -.00000045  00000-0  15874-4 0  9996","PERIOD":"95.592","SITE":"AFETR","ARG_OF_PERICENTER":"82.4479","TIME_SYSTEM":"UTC","OBJECT_NAME":"STARLINK-2344","LAUNCH_DATE":"2021-03-14","ELEMENT_SET_NO":"999","REF_FRAME":"TEME","APOAPSIS":"548.362"},{"ECCENTRICITY":"0.00022370","COUNTRY_CODE":"US","PERIAPSIS":"545.637","MEAN_ANOMALY":"301.1550","OBJECT_TYPE":"PAYLOAD","BSTAR":"0.00032528000000","SEMIMAJOR_AXIS":"6925.321","EPOCH":"2022-07-13T07:30:49.869216","MEAN_ELEMENT_THEORY":"SGP4","TLE_LINE2":"2 47886  53.0527 151.3657 0002237  58.9659 301.1550 15.06408870 74859","OBJECT_ID":"2021-021AC","REV_AT_EPOCH":"7485","EPHEMERIS_TYPE":"0","FILE":"3512925","MEAN_MOTION_DOT":"0.00004568","NORAD_CAT_ID":"47886","INCLINATION":"53.0527","MEAN_MOTION":"15.06408870","MEAN_MOTION_DDOT":"0.0000000000000","RA_OF_ASC_NODE":"151.3657","RCS_SIZE":"LARGE","CENTER_NAME":"EARTH","CLASSIFICATION_TYPE":"U","PERIOD":"95.592","TLE_LINE1":"1 47886U 21021AC  22194.31307719  .00004568  00000-0  32528-3 0  9994","DECAY_DATE":null,"GP_ID":"208035755","OBJECT_NAME":"STARLINK-2345","ELEMENT_SET_NO":"999","LAUNCH_DATE":"2021-03-14","SITE":"AFETR","ARG_OF_PERICENTER":"58.9659","TIME_SYSTEM":"UTC","REF_FRAME":"TEME","APOAPSIS":"548.736"},{"OBJECT_TYPE":"PAYLOAD","BSTAR":"0.00020029000000","SEMIMAJOR_AXIS":"6925.338","EPOCH":"2022-07-13T14:28:10.092576","TLE_LINE2":"2 47887  53.0536 155.0448 0001577  67.7213 292.3944 15.06403353 74825","MEAN_ELEMENT_THEORY":"SGP4","REV_AT_EPOCH":"7482","EPHEMERIS_TYPE":"0","OBJECT_ID":"2021-021AD","FILE":"3513188","NORAD_CAT_ID":"47887","MEAN_MOTION_DOT":"0.00002703","COUNTRY_CODE":"US","ECCENTRICITY":"0.00015770","PERIAPSIS":"546.111","MEAN_ANOMALY":"292.3944","RCS_SIZE":"LARGE","CENTER_NAME":"EARTH","INCLINATION":"53.0536","MEAN_MOTION":"15.06403353","MEAN_MOTION_DDOT":"0.0000000000000","RA_OF_ASC_NODE":"155.0448","OBJECT_NAME":"STARLINK-2346","LAUNCH_DATE":"2021-03-14","ELEMENT_SET_NO":"999","SITE":"AFETR","ARG_OF_PERICENTER":"67.7213","TIME_SYSTEM":"UTC","CLASSIFICATION_TYPE":"U","TLE_LINE1":"1 47887U 21021AD  22194.60289459  .00002703  00000-0  20029-3 0  9999","DECAY_DATE":null,"PERIOD":"95.592","GP_ID":"208065102","APOAPSIS":"548.295","REF_FRAME":"TEME"},{"RCS_SIZE":"LARGE","CENTER_NAME":"EARTH","MEAN_MOTION":"15.06404934","MEAN_MOTION_DDOT":"0.0000000000000","INCLINATION":"53.0532","RA_OF_ASC_NODE":"145.2576","BSTAR":"0.00013285000000","SEMIMAJOR_AXIS":"6925.333","EPOCH":"2022-07-13T13:25:48.116352","OBJECT_TYPE":"PAYLOAD","FILE":"3512925","MEAN_MOTION_DOT":"0.00001698","NORAD_CAT_ID":"47888","TLE_LINE2":"2 47888  53.0532 145.2576 0002198  59.5874 300.5332 15.06404934 74961","MEAN_ELEMENT_THEORY":"SGP4","EPHEMERIS_TYPE":"0","REV_AT_EPOCH":"7496","OBJECT_ID":"2021-021AE","COUNTRY_CODE":"US","ECCENTRICITY":"0.00021980","PERIAPSIS":"545.676","MEAN_ANOMALY":"300.5332","APOAPSIS":"548.721","REF_FRAME":"TEME","OBJECT_NAME":"STARLINK-2348","ELEMENT_SET_NO":"999","LAUNCH_DATE":"2021-03-14","ARG_OF_PERICENTER":"59.5874","TIME_SYSTEM":"UTC","SITE":"AFETR","PERIOD":"95.592","TLE_LINE1":"1 47888U 21021AE  22194.55958468  .00001698  00000-0  13285-3 0  9995","DECAY_DATE":null,"CLASSIFICATION_TYPE":"U","GP_ID":"208034254"},{"REF_FRAME":"TEME","APOAPSIS":"548.595","GP_ID":"208034504","DECAY_DATE":null,"TLE_LINE1":"1 47889U 21021AF  22194.37160218  .00000162  00000-0  29772-4 0  9998","PERIOD":"95.592","CLASSIFICATION_TYPE":"U","TIME_SYSTEM":"UTC","ARG_OF_PERICENTER":"61.5082","SITE":"AFETR","OBJECT_NAME":"STARLINK-2349","LAUNCH_DATE":"2021-03-14","ELEMENT_SET_NO":"999","RA_OF_ASC_NODE":"146.1029","MEAN_MOTION":"15.06405069","MEAN_MOTION_DDOT":"0.0000000000000","INCLINATION":"53.0553","RCS_SIZE":"LARGE","CENTER_NAME":"EARTH","MEAN_ANOMALY":"298.6110","ECCENTRICITY":"0.00020170","COUNTRY_CODE":"US","PERIAPSIS":"545.801","FILE":"3512925","MEAN_MOTION_DOT":"0.00000162","NORAD_CAT_ID":"47889","MEAN_ELEMENT_THEORY":"SGP4","TLE_LINE2":"2 47889  53.0553 146.1029 0002017  61.5082 298.6110 15.06405069 74985","REV_AT_EPOCH":"7498","OBJECT_ID":"2021-021AF","EPHEMERIS_TYPE":"0","BSTAR":"0.00002977200000","EPOCH":"2022-07-13T08:55:06.428352","SEMIMAJOR_AXIS":"6925.333","OBJECT_TYPE":"PAYLOAD"},{"OBJECT_NAME":"STARLINK-2350","ELEMENT_SET_NO":"999","LAUNCH_DATE":"2021-03-14","SITE":"AFETR","TIME_SYSTEM":"UTC","ARG_OF_PERICENTER":"41.4034","CLASSIFICATION_TYPE":"U","PERIOD":"93.374","TLE_LINE1":"1 47890U 21021AG  22194.41142017  .00004182  00000-0  10545-3 0  9995","DECAY_DATE":null,"GP_ID":"208035255","APOAPSIS":"441.527","REF_FRAME":"TEME","OBJECT_TYPE":"PAYLOAD","BSTAR":"0.00010545000000","EPOCH":"2022-07-13T09:52:26.702688","SEMIMAJOR_AXIS":"6817.810","TLE_LINE2":"2 47890  53.0548  91.2673 0002717  41.4034 318.7176 15.42181407 74766","MEAN_ELEMENT_THEORY":"SGP4","REV_AT_EPOCH":"7476","EPHEMERIS_TYPE":"0","OBJECT_ID":"2021-021AG","FILE":"3512925","NORAD_CAT_ID":"47890","MEAN_MOTION_DOT":"0.00004182","COUNTRY_CODE":"US","ECCENTRICITY":"0.00027170","PERIAPSIS":"437.822","MEAN_ANOMALY":"318.7176","RCS_SIZE":"LARGE","CENTER_NAME":"EARTH","INCLINATION":"53.0548","MEAN_MOTION":"15.42181407","MEAN_MOTION_DDOT":"0.0000000000000","RA_OF_ASC_NODE":"91.2673"},{"MEAN_ANOMALY":"298.2582","COUNTRY_CODE":"US","ECCENTRICITY":"0.00017550","PERIAPSIS":"545.988","FILE":"3512925","MEAN_MOTION_DOT":"-0.00000156","NORAD_CAT_ID":"47891","MEAN_ELEMENT_THEORY":"SGP4","TLE_LINE2":"2 47891  53.0536 156.3690 0001755  61.8584 298.2582 15.06403431 74940","OBJECT_ID":"2021-021AH","REV_AT_EPOCH":"7494","EPHEMERIS_TYPE":"0","BSTAR":"0.00000846570000","EPOCH":"2022-07-13T07:28:51.154752","SEMIMAJOR_AXIS":"6925.338","OBJECT_TYPE":"PAYLOAD","RA_OF_ASC_NODE":"156.3690","MEAN_MOTION":"15.06403431","MEAN_MOTION_DDOT":"0.0000000000000","INCLINATION":"53.0536","CENTER_NAME":"EARTH","RCS_SIZE":"LARGE","GP_ID":"208036000","DECAY_DATE":null,"TLE_LINE1":"1 47891U 21021AH  22194.31170318 -.00000156  00000-0  84657-5 0  9995","PERIOD":"95.592","CLASSIFICATION_TYPE":"U","ARG_OF_PERICENTER":"61.8584","TIME_SYSTEM":"UTC","SITE":"AFETR","OBJECT_NAME":"STARLINK-2351","LAUNCH_DATE":"2021-03-14","ELEMENT_SET_NO":"999","REF_FRAME":"TEME","APOAPSIS":"548.418"}];
